satname,norad_id,inclination_deg,eccentricity,mean_motion_rev_per_day,perigee_km,apogee_km,l1,l2
STARLINK-1008,44714,53.151,0.0002774,15.49252367,417.0264201837517,420.7974229254305,1 44714U 19074B   26161.53956934  .00053637  00000+0  96768-3 0  9993,2 44714  53.1510 100.5393 0002774 103.3361 256.7958 15.49252367363182
STARLINK-1012,44718,53.155,0.0002446,15.4955891,416.35313122160005,419.6778090099815,1 44718U 19074F   26161.53705698  .00063378  00000+0  11283-2 0  9997,2 44718  53.1550 100.8332 0002446 102.9908 257.1374 15.49558910363173
STARLINK-1017,44723,53.0481,0.0005154,15.31602273,467.5012684602243,474.56139117460043,1 44723U 19074L   26161.55058316  .00039166  00000+0  12707-2 0  9993,2 44723  53.0481 100.4361 0005154  48.2441 311.8999 15.31602273363165
STARLINK-1020,44725,53.1566,0.0004663,15.54834047,399.47320314685203,405.7969511860174,1 44725U 19074N   26161.61460862  .00089903  00000+0  13170-2 0  9994,2 44725  53.1566 124.4132 0004663  78.6392 281.5143 15.54834047362838
STARLINK-1036,44741,53.0416,0.0002833,15.69481139,358.4727202199201,362.2907649394665,1 44741U 19074AE  26161.52910818  .00051680  00000+0  43274-3 0  9993,2 44741  53.0416  93.6019 0002833  23.2827 336.8317 15.69481139363256
STARLINK-1039,44744,53.0577,0.0004318,15.28755919,476.5690880433003,482.4913694620518,1 44744U 19074AH  26161.25833964  .00037761  00000+0  13383-2 0  9993,2 44744  53.0577 147.2419 0004318  48.4161 311.7207 15.28755919362486
STARLINK-1042,44747,53.0437,0.0002876,15.54270374,402.32377024086054,406.2250132734007,1 44747U 19074AL  26160.86124159  .00024943  00000+0  38130-3 0  9997,2 44747  53.0437  11.0221 0002876 102.1760 257.9572 15.54270374364386
STARLINK-1043,44748,53.0478,0.0001044,15.62703421,379.14624072997776,380.5573087861467,1 44748U 19074AM  26161.12780968  .00039397  00000+0  43486-3 0  9993,2 44748  53.0478 105.9542 0001044  86.8355 273.2777 15.62703421363059
STARLINK-1046,44751,53.0475,0.0007395,15.55017295,397.0883684022074,407.1163424088518,1 44751U 19074AQ  26161.62228866  .00041453  00000+0  61024-3 0  9990,2 44751  53.0475 125.2837 0007395  66.0842 294.0942 15.55017295362826
STARLINK-1047,44752,53.069,0.0003736,15.34585259,459.5971345931757,464.70819903221854,1 44752U 19074AR  26161.03727137  .00009646  00000+0  29453-3 0  9999,2 44752  53.0690  73.9319 0003736 115.0645 245.0744 15.34585259363511
STARLINK-1048,44753,53.0444,0.0006705,15.6757993,361.30726731584036,370.3509258513586,1 44753U 19074AS  26161.46155869  .00049403  00000+0  44709-3 0  9990,2 44753  53.0444  75.9768 0006705  65.9731 294.1986 15.67579930363492
STARLINK-1063,44768,53.1546,0.0002449,15.49191614,417.42498135276674,420.7542629522968,1 44768U 19074BH  26161.48785506  .00054042  00000+0  97697-3 0  9994,2 44768  53.1546 141.8144 0002449  62.8692 297.2566 15.49191614362616
STARLINK-1067,44771,53.0423,0.0001898,15.77154855,337.231454992987,339.78109277975454,1 44771U 19074BL  26161.56505391  .00083301  00000+0  49842-3 0  9998,2 44771  53.0423 107.0812 0001898 113.0743 247.0477 15.77154855363074
STARLINK-1068,44772,53.0415,0.000209,15.75736018,341.1329509959023,343.94219296698975,1 44772U 19074BM  26161.57614381  .00072651  00000+0  46380-3 0  9990,2 44772  53.0415  80.7518 0002090 138.8156 221.3021 15.75736018363439
STARLINK-1114,44927,53.0405,0.0004494,15.65481508,368.8208583144624,374.88775049886226,1 44927U 20001P   26161.60963753  .00039005  00000+0  38590-3 0  9998,2 44927  53.0405 237.8287 0004494   6.8217 353.2858 15.65481508354589
STARLINK-1123,44930,53.1434,0.0006346,15.58541445,387.5813329184939,396.1738354287263,1 44930U 20001S   26161.59718849  .00069325  00000+0  88835-3 0  9999,2 44930  53.1434 265.0546 0006346 320.8161  39.2391 15.58541445354214
STARLINK-1094,44941,53.1523,0.0006801,15.54663343,398.5194856562093,407.7433669696802,1 44941U 20001AD  26161.56238800  .00034763  00000+0  52014-3 0  9990,2 44941  53.1523 240.3155 0006801 344.8504  15.2302 15.54663343354562
STARLINK-1122,44949,53.1544,0.000619,15.54668536,398.91872968790994,407.3139213048735,1 44949U 20001AM  26161.50958809  .00062812  00000+0  93073-3 0  9996,2 44949  53.1544 241.1842 0006190 342.8495  17.2306 15.54668536354546
STARLINK-1080,44961,53.0445,0.0002911,15.67892945,362.9685801066089,366.8943945799401,1 44961U 20001AZ  26161.29484945  .00045910  00000+0  41111-3 0  9997,2 44961  53.0445 199.7118 0002911  36.6230 323.4984 15.67892945355097
STARLINK-1090,44968,53.1487,0.0005141,15.50859337,410.7238493029263,417.7077464497024,1 44968U 20001BG  26161.56710865  .00048922  00000+0  83488-3 0  9996,2 44968  53.1487 228.7019 0005141 352.3923   7.7007 15.50859337354726
STARLINK-1132,45044,53.1497,0.0004174,15.55989996,396.4474667798604,402.10525145204974,1 45044U 20006A   26161.46931670  .00059438  00000+0  84008-3 0  9998,2 45044  53.1497 170.1137 0004174  30.4052 329.7201 15.55989996351311
STARLINK-1131,45047,53.1562,0.0005806,15.52664503,405.00955663094555,412.89072221724473,1 45047U 20006D   26161.29606845  .00056467  00000+0  90134-3 0  9991,2 45047  53.1562 203.8470 0005806   8.0941 352.0162 15.52664503350823
STARLINK-1134,45048,53.0237,0.0007873,15.59014981,385.1776765297609,395.83558278902365,1 45048U 20006E   26161.66670139  .00099066  00000+0  12390-2 0  9999,2 45048  53.0237 151.7514 0007873  71.2330   8.2008 15.59014981  5958
STARLINK-1156,45054,53.1573,0.0004661,15.352422,457.01383929319945,463.38853815272705,1 45054U 20006L   26161.33927289  .00039196  00000+0  11341-2 0  9994,2 45054  53.1573 209.5578 0004661 359.0988   1.0006 15.35242200350749
STARLINK-1166,45060,53.045,0.0006113,15.59980192,383.57838859438107,391.85031845920275,1 45060U 20006S   26161.59158338  .00066026  00000+0  80180-3 0  9990,2 45060  53.0450 185.1156 0006113  17.6229 342.4994 15.59980192351091
STARLINK-1169,45061,53.1549,0.0005884,15.38672013,446.01760744820876,454.0530006155941,1 45061U 20006T   26161.30309542  .00045296  00000+0  11709-2 0  9991,2 45061  53.1549 208.2523 0005884 340.4438  19.6340 15.38672013350768
STARLINK-1171,45062,53.0386,0.0003404,15.74690628,343.22294949133266,347.80040951233696,1 45062U 20006U   26161.26169470  .00071168  00000+0  47555-3 0  9997,2 45062  53.0386 152.3562 0003404  14.8803 345.2315 15.74690628351520
STARLINK-1133,45064,53.1556,0.0005485,15.35242288,456.4500990543429,463.9517557607087,1 45064U 20006W   26161.31048500  .00052367  00000+0  15087-2 0  9999,2 45064  53.1556 186.4732 0005485  14.1992 345.9165 15.35242288351074
STARLINK-1167,45071,53.1565,0.0004047,15.37707377,450.12612553019153,455.65515930396487,1 45071U 20006AD  26161.30906223  .00046570  00000+0  12419-2 0  9996,2 45071  53.1565 185.5014 0004047 345.9653  14.1238 15.37707377351081
STARLINK-1168,45072,53.1561,0.0004935,15.3539306,456.37874873829605,463.1277464126533,1 45072U 20006AE  26161.28993570  .00052036  00000+0  14923-2 0  9991,2 45072  53.1561 186.7625 0004935  14.9787 345.1361 15.35393060351066
STARLINK-1172,45074,53.1542,0.0004615,15.3866482,446.9053730497517,453.2077957281417,1 45074U 20006AG  26161.33003665  .00040073  00000+0  10382-2 0  9999,2 45074  53.1542 184.7209 0004615 352.2577   7.8355 15.38664820351099
STARLINK-1153,45080,53.156,0.0005675,15.37838234,448.6267402769472,456.37951682285257,1 45080U 20006AN  26161.35733487  .00032787  00000+0  87513-3 0  9994,2 45080  53.1560 185.1914 0005675 338.1179  21.9581 15.37838234351091
STARLINK-1151,45081,53.0481,0.0001509,15.87299681,308.84799515514896,310.86643180877763,1 45081U 20006AP  26161.66670139  .00113324  00000+0  42006-3 0  9998,2 45081  53.0481 138.6729 0001509 102.4126  34.3477 15.87299681  6019
STARLINK-1185,45087,53.158,0.0005939,15.46234285,423.71176415642094,431.7958012281024,1 45087U 20006AV  26161.29025672  .00055277  00000+0  11064-2 0  9990,2 45087  53.1580 165.4735 0005939  24.3307 335.7980 15.46234285351367
STARLINK-1183,45088,53.1565,0.0005508,15.35183997,456.6073757544518,464.1406795024877,1 45088U 20006AW  26161.33503136  .00030453  00000+0  88617-3 0  9990,2 45088  53.1565 171.1747 0005508  29.7537 330.3778 15.35183997351282
STARLINK-1152,45096,53.0326,0.0004341,15.49213983,416.0735445126338,421.9748398596903,1 45096U 20006BE  26161.61900556  .00055820  00000+0  10075-2 0  9994,2 45096  53.0326 124.4857 0004341  79.4310 280.7187 15.49213983351942
STARLINK-1184,45098,53.0505,0.0005219,15.14393809,519.2179086986371,526.4211271120275,1 45098U 20006BG  26161.31433597  .00019623  00000+0  10698-2 0  9991,2 45098  53.0505 185.7136 0005219  38.8957 321.2411 15.14393809351055
STARLINK-1193,45100,53.0448,0.000463,15.68127936,361.1360890250835,367.37954662639004,1 45100U 20006BJ  26161.19438485  .00052041  00000+0  46042-3 0  9996,2 45100  53.0448 138.0222 0004630 355.1390   4.9580 15.68127936351714
STARLINK-1143,45179,53.0325,0.000939,15.90699422,294.0534110800363,306.59556175152466,1 45179U 20012B   26161.66670139  .00184268  23553-4  58793-3 0  9991,2 45179  53.0325 226.3332 0009390   1.5780 240.3584 15.90699422  5816
STARLINK-1202,45183,53.1557,0.0001475,15.34989484,459.94296467551067,461.96049585093715,1 45183U 20012F   26161.60624751  .00033195  00000+0  97093-3 0  9994,2 45183  53.1557 326.6617 0001475 226.9205 133.1675 15.34989484349190
STARLINK-1216,45185,53.1574,0.0001746,15.35260067,458.9541687083092,461.3420978768554,1 45185U 20012H   26161.19422154  .00047127  00000+0  13595-2 0  9997,2 45185  53.1574 328.4441 0001746 208.8071 151.2836 15.35260067349074
STARLINK-1225,45187,53.1587,0.0001505,15.35309428,458.97242302770064,461.0307027351273,1 45187U 20012K   26161.19292036  .00056395  00000+0  16202-2 0  9998,2 45187  53.1587 328.9128 0001505 221.9123 138.1765 15.35309428349119
STARLINK-1230,45189,53.1575,0.0001552,15.35154349,459.40072358310863,461.52342473572753,1 45189U 20012M   26161.52965665  .00040449  00000+0  11734-2 0  9990,2 45189  53.1575 327.4089 0001552 224.4643 135.6235 15.35154349346396
